CCSDS_OEM_VERS = 2.0
CREATION_DATE  = 2026-04-27T15:24:40.468
ORIGINATOR     = NASA/JSC/FOD/TOPO

META_START
OBJECT_NAME          = ISS
OBJECT_ID            = 1998-067-A
CENTER_NAME          = Earth
REF_FRAME            = EME2000
TIME_SYSTEM          = UTC
START_TIME           = 2026-04-27T12:00:00.000
USEABLE_START_TIME   = 2026-04-27T12:00:00.000
USEABLE_STOP_TIME    = 2026-05-12T12:00:00.000
STOP_TIME            = 2026-05-12T12:00:00.000
META_STOP

COMMENT Source: This file was produced by the TOPO office within FOD at JSC.
COMMENT Units are in kg and m^2
COMMENT MASS=462183.00
COMMENT DRAG_AREA=1511.80
COMMENT DRAG_COEFF=1.25
COMMENT SOLAR_RAD_AREA=0.00
COMMENT SOLAR_RAD_COEFF=0.00
COMMENT Orbits start at the ascending node epoch
COMMENT ISS first asc. node: EPOCH = 2026-04-27T13:18:57.022 $ ORBIT = 390 $ LAN(DEG) = 135.43181
COMMENT ISS last asc. node : EPOCH = 2026-05-12T10:58:10.024 $ ORBIT = 621 $ LAN(DEG) = 82.20235
COMMENT Begin sequence of events
COMMENT TRAJECTORY EVENT SUMMARY:
COMMENT 
COMMENT |       EVENT        |       TIG        | ORB |   DV    |   HA    |   HP    |
COMMENT |                    |       GMT        |     |   M/S   |   KM    |   KM    |
COMMENT |                    |                  |     |  (F/S)  |  (NM)   |  (NM)   |
COMMENT =============================================================================
COMMENT  95P Dock              118:00:01:16.000             0.0     426.8     411.8
COMMENT                                                    (0.0)   (230.5)   (222.4)
COMMENT 
COMMENT =============================================================================
COMMENT End sequence of events
2026-05-12T00:24:00.000 -4775.002319601160 951.445942327314 4727.492163105470 1.35652235752544 -7.01792153106176 2.77719631827339
2026-05-12T00:28:00.000 -4279.473390672570 -747.018320362135 5213.200550160620 2.74751356350473 -7.04940108418878 1.24568712701461
2026-05-12T00:32:00.000 -3472.291023066200 -2391.103076055120 5318.185552426070 3.93780795054628 -6.56759111965580 -0.37606475861324
2026-05-12T00:36:00.000 -2412.343927699330 -3861.137547110070 5034.934282946150 4.84107766746977 -5.60788581466756 -1.96983342144455
2026-05-12T00:40:00.000 -1176.837420352990 -5050.173053696660 4384.213676024490 5.39190405042933 -4.24023154818209 -3.41959197839942
2026-05-12T00:44:00.000 144.301724218902 -5871.715544572630 3413.554859419460 5.55033780241289 -2.56417673148586 -4.61965630879640
2026-05-12T00:48:00.000 1454.940259098880 -6266.044942977250 2193.825944842550 5.30496053036937 -0.70193602867003 -5.48245157309338
2026-05-12T00:52:00.000 2659.757038737580 -6204.628743156520 814.074285153159 4.67397246054704 1.21038085579011 -5.94503900316441
2026-05-12T00:56:00.000 3671.266539992300 -5692.257338837970 -625.027780134581 3.70405456129315 3.03300154927266 -5.97414128101708
2026-05-12T01:00:00.000 4416.254227712420 -4766.625457925660 -2018.656056355690 2.46667071336409 4.63323047841102 -5.56860096806592
2026-05-12T01:04:00.000 4841.094598519790 -3495.422093863050 -3265.566647853790 1.05252237018635 5.89537422293216 -4.75917427464357
2026-05-12T01:08:00.000 4915.540466562950 -1971.199126443060 -4275.480295693280 -0.43553575604150 6.72916149007475 -3.60581867176904
2026-05-12T01:12:00.000 4634.715098126150 -304.489570985046 -4975.532901434590 -1.89022969732171 7.07581071354403 -2.19272542816328
2026-05-12T01:16:00.000 4019.256691135310 1384.214717043350 -5315.340616852780 -3.20743455010338 6.91147439334269 -0.62188877816538
2026-05-12T01:20:00.000 3113.708401132350 2973.011658015370 -5270.421404853660 -4.29315799881754 6.24822642937708 0.99406680602462
2026-05-12T01:24:00.000 1983.339182549290 4347.120463978320 -4843.852112143350 -5.06961918439470 5.13301030651772 2.53937983549301
2026-05-12T01:28:00.000 709.612165778673 5406.935058538010 -4066.104106110730 -5.48042573339280 3.64468965631631 3.90278110830912
2026-05-12T01:32:00.000 -615.468087378718 6075.149665178640 -2993.059978222430 -5.49471875713410 1.88928202481644 4.98504736363914
2026-05-12T01:36:00.000 -1895.847164549880 6302.499354270560 -1702.227876761510 -5.10992157538087 -0.00687237690576 5.70634286890755
2026-05-12T01:40:00.000 -3038.355701945290 6071.619675312160 -287.307726217907 -4.35262553768976 -1.90586962790237 6.01250492578334
2026-05-12T01:44:00.000 -3959.596542620130 5398.624693314630 1148.571204880950 -3.27725553600382 -3.66840101421439 5.87973302743957
2026-05-12T01:48:00.000 -4592.222433006690 4332.145542447010 2500.481090304790 -1.96229035399604 -5.16462034646986 5.31700583395257
2026-05-12T01:52:00.000 -4890.014769008880 2949.795133746150 3669.552400157570 -0.50415965654533 -6.28443140070484 4.36547850894109
2026-05-12T01:56:00.000 -4831.310388025540 1352.386365726390 4570.345101338200 0.99024653397793 -6.94579721405673 3.09516766951119
2026-05-12T02:00:00.000 -4420.549656885470 -343.579618910869 5137.155060248500 2.41168775511575 -7.10081403799571 1.59942436872381
2026-05-12T02:04:00.000 -3687.839955673070 -2014.538925735960 5328.766026740320 3.65682227339704 -6.73876615975025 -0.01233621161478
2026-05-12T02:08:00.000 -2686.652527116420 -3538.859870574460 5131.348133798650 4.63538349605366 -5.88631907334298 -1.62266792700774
2026-05-12T02:12:00.000 -1489.925823483840 -4805.627004251420 4559.404851514390 5.27639796473659 -4.60560655272115 -3.11429326627825
2026-05-12T02:16:00.000 -184.777400540366 -5722.682525423780 3654.723395183640 5.53339340918030 -2.98986415735220 -4.37851159177873
2026-05-12T02:20:00.000 1133.814119214120 -6223.338602541550 2483.356104604240 5.38776397330106 -1.15686615258706 -5.32305456221255
2026-05-12T02:24:00.000 2369.930995185660 -6271.292978493490 1130.824036057040 4.85037928240492 0.75948984970645 -5.87898220060702
2026-05-12T02:28:00.000 3433.766676598390 -5863.336049931210 -304.161941198911 3.96099474226130 2.61909280395456 -6.00606400425559
2026-05-12T02:32:00.000 4248.241859293590 -5029.557656617920 -1717.019170430030 2.78522939064517 4.28633508334089 -5.69589149387556
2026-05-12T02:36:00.000 4754.635306273930 -3831.007049085770 -3005.034270473820 1.40941423085118 5.64046605135599 -4.97228297440529
2026-05-12T02:40:00.000 4916.759277651920 -2355.034238721390 -4074.875917197330 -0.06620819111979 6.58436158712230 -3.88903821753507
2026-05-12T02:44:00.000 4723.402635160370 -708.769888971864 -4849.294151614810 -1.53503829915037 7.05120873182308 -2.52545916659960
2026-05-12T02:48:00.000 4188.930728630980 988.691676985358 -5272.528847717650 -2.89177992884548 7.00858730112528 -0.98020012379282
2026-05-12T02:52:00.000 3352.103858634400 2614.785929108200 -5314.118486721280 -4.03957346531764 6.46007597740225 0.63579697168899
2026-05-12T02:56:00.000 2273.271285248380 4052.083639808250 -4970.951427109460 -4.89634172106132 5.44460892024038 2.20682142185903
2026-05-12T03:00:00.000 1030.163829555980 5196.506558628580 -4267.503487884860 -5.40013655074110 4.03395120703616 3.61995404076240
2026-05-12T03:04:00.000 -287.490159870708 5964.723081718190 -3254.253488426800 -5.51355566408288 2.32833024326222 4.77267724302046
2026-05-12T03:08:00.000 -1584.253205921990 6300.266975767750 -2004.301454930930 -5.22683675122079 0.45020120286170 5.58018287709556
2026-05-12T03:12:00.000 -2765.838662173370 6177.916084486290 -608.293850621666 -4.55940318527267 -1.46409656351139 5.98208480677209
2026-05-12T03:16:00.000 -3746.057127747300 5605.837288762950 832.098317395867 -3.55894678556934 -3.27441243190101 5.94756396052588
2026-05-12T03:20:00.000 -4453.262047525990 4625.228509799270 2211.661532242560 -2.29826124375281 -4.84744051798482 5.47820191453235
2026-05-12T03:24:00.000 -4835.764678422540 3307.389164623190 3429.502722141060 -0.86977013685333 -6.06731724693408 4.60818878368759
2026-05-12T03:28:00.000 -4865.700258328480 1748.411806660050 4396.596773459380 0.62172672320058 -6.84461237984251 3.40155943183910
2026-05-12T03:32:00.000 -4541.028613769150 61.999813513737 5042.366326876600 2.06718427036862 -7.12283197587290 1.94697585970696
2026-05-12T03:36:00.000 -3885.590284487940 -1628.937630778050 5319.807861984130 3.36130112121541 -6.88220025276038 0.35100189557138
2026-05-12T03:40:00.000 -2947.264531334150 -3201.293243254610 5208.845491345860 4.41025824827816 -6.14073539658423 -1.26994239064322
2026-05-12T03:44:00.000 -1794.419205853970 -4540.660870607910 4717.692479113980 5.13807859424001 -4.95248953390132 -2.79789462527779
2026-05-12T03:48:00.000 -510.978819003588 -5549.590519171030 3882.239955353590 5.49190903932146 -3.40391302864582 -4.12153599811988
2026-05-12T03:52:00.000 809.646874676518 -6154.693816318680 2763.487460994030 5.44608562758012 -1.60787668091013 -5.14426125987272
2026-05-12T03:56:00.000 2071.374816109830 -6312.043401411460 1443.115148714350 5.00415396127762 0.30447083272091 -5.79141246339720
2026-05-12T04:00:00.000 3182.497337886210 -6010.432533801670 17.500721724978 4.19883213338802 2.19332150453573 -6.01597881969531
2026-05-12T04:04:00.000 4062.441884445640 -5272.193750211960 -1409.409477523900 3.08959659133595 3.92079291859452 -5.80231896724955
2026-05-12T04:08:00.000 4647.673367477560 -4151.451483237000 -2733.809985132380 1.75800968207414 5.36150886283681 -5.16716909520908
2026-05-12T04:12:00.000 4896.254966447750 -2729.975018603110 -3859.656010206060 0.30130708113607 6.41188156762535 -4.15798474604991
2026-05-12T04:16:00.000 4790.724266361020 -1111.031300242140 -4705.592231466300 -1.17508296731859 6.99734023732274 -2.84886663278918
2026-05-12T04:20:00.000 4339.137970312460 588.184760133688 -5210.674436213400 -2.56516826376560 7.07696186329897 -1.33473950620040
2026-05-12T04:24:00.000 3574.327257513880 2244.943363033220 -5338.556602952070 -3.76965034761847 6.64570083431222 0.27555023803158
2026-05-12T04:28:00.000 2551.490085944640 3739.619508882290 -5079.948993437750 -4.70246130668765 5.73430005645357 1.86664471264045
2026-05-12T04:32:00.000 1344.317418080750 4964.070761121350 -4453.262397850480 -5.29641356963292 4.40718929410395 3.32433956902712
